{"type": "FeatureCollection", "features": [ {"type": "Feature", "properties": {"norad_id": 29973, "name": "FENGYUN 1C DEB", "group": "fengyun-1c-debris", "lat": -80.80515969934484, "lon": 95.80026175850765, "alt_km": 903.7524823482718, "timestamp": "2025-12-15T10:55:21.415663+00:00", "meta": {"OBJECT_NAME": "FENGYUN 1C DEB", "OBJECT_ID": "1999-025KX", "EPOCH": "2025-12-14T22:01:21.576576", "MEAN_MOTION": 14.06540769, "ECCENTRICITY": 0.00593403, "INCLINATION": 98.8426, "RA_OF_ASC_NODE": 349.3599, "ARG_OF_PERICENTER": 142.8674, "MEAN_ANOMALY": 283.9253, "EPHEMERIS_TYPE": 0, "CLASSIFICATION_TYPE": "U", "NORAD_CAT_ID": 29973, "ELEMENT_SET_NO": 999, "REV_AT_EPOCH": 96749, "BSTAR": 0.00055341112, "MEAN_MOTION_DOT": 8.88e-06, "MEAN_MOTION_DDOT": 0}, "tle": {"line1": "1 29973U 99025KX  25348.91761084  .00000888  00000+0  55341-3 0  9997", "line2": "2 29973  98.8426 349.3599 0059340 142.8674 283.9253 14.06540769967493"}}, "geometry": {"type": "Point", "coordinates": [95.80026175850765, -80.80515969934484]}}, {"type": "Feature", "properties": {"norad_id": 29974, "name": "FENGYUN 1C DEB", "group": "fengyun-1c-debris", "lat": -27.06932621921729, "lon": -110.9703040253807, "alt_km": 871.2672558826625, "timestamp": "2025-12-15T10:55:21.415673+00:00", "meta": {"OBJECT_NAME": "FENGYUN 1C DEB", "OBJECT_ID": "1999-025KY", "EPOCH": "2025-12-14T17:41:37.467744", "MEAN_MOTION": 14.14858556, "ECCENTRICITY": 0.0046647, "INCLINATION": 98.8941, "RA_OF_ASC_NODE": 72.9045, "ARG_OF_PERICENTER": 76.5493, "MEAN_ANOMALY": 75.9476, "EPHEMERIS_TYPE": 0, "CLASSIFICATION_TYPE": "U", "NORAD_CAT_ID": 29974, "ELEMENT_SET_NO": 999, "REV_AT_EPOCH": 96953, "BSTAR": 0.001124218, "MEAN_MOTION_DOT": 2.149e-05, "MEAN_MOTION_DDOT": 0}, "tle": {"line1": "1 29974U 99025KY  25348.73723921  .00002149  00000+0  11242-2 0  9999", "line2": "2 29974  98.8941  72.9045 0046647  76.5493  75.9476 14.14858556969537"}}, "geometry": {"type": "Point", "coordinates": [-110.9703040253807, -27.06932621921729]}}, {"type": "Feature", "properties": {"norad_id": 29975, "name": "FENGYUN 1C DEB", "group": "fengyun-1c-debris", "lat": 39.34549388163063, "lon": 22.813991603309535, "alt_km": 828.5633740307858, "timestamp": "2025-12-15T10:55:21.415683+00:00", "meta": {"OBJECT_NAME": "FENGYUN 1C DEB", "OBJECT_ID": "1999-025KZ", "EPOCH": "2025-12-14T21:50:44.397312", "MEAN_MOTION": 13.98026015, "ECCENTRICITY": 0.0113435, "INCLINATION": 99.3392, "RA_OF_ASC_NODE": 30.0132, "ARG_OF_PERICENTER": 7.837, "MEAN_ANOMALY": 170.708, "EPHEMERIS_TYPE": 0, "CLASSIFICATION_TYPE": "U", "NORAD_CAT_ID": 29975, "ELEMENT_SET_NO": 999, "REV_AT_EPOCH": 96467, "BSTAR": 5.4567848e-05, "MEAN_MOTION_DOT": 3.5e-07, "MEAN_MOTION_DDOT": 0}, "tle": {"line1": "1 29975U 99025KZ  25348.91023608  .00000035  00000+0  54568-4 0  9997", "line2": "2 29975  99.3392  30.0132 0113435   7.8370 170.7080 13.98026015964670"}}, "geometry": {"type": "Point", "coordinates": [22.813991603309535, 39.34549388163063]}}, {"type": "Feature", "properties": {"norad_id": 29976, "name": "FENGYUN 1C DEB", "group": "fengyun-1c-debris", "lat": -35.37943095238557, "lon": 160.28895489364479, "alt_km": 719.2057232447269, "timestamp": "2025-12-15T10:55:21.415694+00:00", "meta": {"OBJECT_NAME": "FENGYUN 1C DEB", "OBJECT_ID": "1999-025LA", "EPOCH": "2025-12-14T22:11:23.830368", "MEAN_MOTION": 13.98110685, "ECCENTRICITY": 0.02674322, "INCLINATION": 98.918, "RA_OF_ASC_NODE": 346.1746, "ARG_OF_PERICENTER": 233.4565, "MEAN_ANOMALY": 194.3764, "EPHEMERIS_TYPE": 0, "CLASSIFICATION_TYPE": "U", "NORAD_CAT_ID": 29976, "ELEMENT_SET_NO": 999, "REV_AT_EPOCH": 96367, "BSTAR": 0.00031680743, "MEAN_MOTION_DOT": 5.66e-06, "MEAN_MOTION_DDOT": 0}, "tle": {"line1": "1 29976U 99025LA  25348.92458137  .00000566  00000+0  31681-3 0  9997", "line2": "2 29976  98.9180 346.1746 0267432 233.4565 194.3764 13.98110685963670"}}, "geometry": {"type": "Point", "coordinates": [160.28895489364479, -35.37943095238557]}}, {"type": "Feature", "properties": {"norad_id": 29977, "name": "FENGYUN 1C DEB", "group": "fengyun-1c-debris", "lat": -35.02347671537519, "lon": 25.361979365952347, "alt_km": 804.7032692096191, "timestamp": "2025-12-15T10:55:21.415704+00:00", "meta": {"OBJECT_NAME": "FENGYUN 1C DEB", "OBJECT_ID": "1999-025LB", "EPOCH": "2025-12-14T13:31:26.111424", "MEAN_MOTION": 14.05095936, "ECCENTRICITY": 0.01283507, "INCLINATION": 98.397, "RA_OF_ASC_NODE": 210.4778, "ARG_OF_PERICENTER": 251.7609, "MEAN_ANOMALY": 136.8503, "EPHEMERIS_TYPE": 0, "CLASSIFICATION_TYPE": "U", "NORAD_CAT_ID": 29977, "ELEMENT_SET_NO": 999, "REV_AT_EPOCH": 96386, "BSTAR": 0.0014434114, "MEAN_MOTION_DOT": 2.466e-05, "MEAN_MOTION_DDOT": 0}, "tle": {"line1": "1 29977U 99025LB  25348.56349666  .00002466  00000+0  14434-2 0  9991", "line2": "2 29977  98.3970 210.4778 0128350 251.7609 136.8503 14.05095936963860"}}, "geometry": {"type": "Point", "coordinates": [25.361979365952347, -35.02347671537519]}}, {"type": "Feature", "properties": {"norad_id": 29978, "name": "FENGYUN 1C DEB", "group": "fengyun-1c-debris", "lat": -30.198864251031345, "lon": -145.47118028505773, "alt_km": 967.9387940180695, "timestamp": "2025-12-15T10:55:21.415715+00:00", "meta": {"OBJECT_NAME": "FENGYUN 1C DEB", "OBJECT_ID": "1999-025LC", "EPOCH": "2025-12-14T17:17:07.584288", "MEAN_MOTION": 13.9590705, "ECCENTRICITY": 0.00766355, "INCLINATION": 99.0611, "RA_OF_ASC_NODE": 39.1349, "ARG_OF_PERICENTER": 46.9353, "MEAN_ANOMALY": 72.3959, "EPHEMERIS_TYPE": 0, "CLASSIFICATION_TYPE": "U", "NORAD_CAT_ID": 29978, "ELEMENT_SET_NO": 999, "REV_AT_EPOCH": 96344, "BSTAR": 6.6624513e-05, "MEAN_MOTION_DOT": 5e-07, "MEAN_MOTION_DDOT": 0}, "tle": {"line1": "1 29978U 99025LC  25348.72022667  .00000050  00000+0  66625-4 0  9997", "line2": "2 29978  99.0611  39.1349 0076635  46.9353  72.3959 13.95907050963449"}}, "geometry": {"type": "Point", "coordinates": [-145.47118028505773, -30.198864251031345]}}, {"type": "Feature", "properties": {"norad_id": 29979, "name": "FENGYUN 1C DEB", "group": "fengyun-1c-debris", "lat": 20.517650346065782, "lon": -164.29768112337405, "alt_km": 728.0101113801647, "timestamp": "2025-12-15T10:55:21.415725+00:00", "meta": {"OBJECT_NAME": "FENGYUN 1C DEB", "OBJECT_ID": "1999-025LD", "EPOCH": "2025-12-14T21:17:21.070752", "MEAN_MOTION": 14.259678, "ECCENTRICITY": 0.01076734, "INCLINATION": 98.3705, "RA_OF_ASC_NODE": 12.0009, "ARG_OF_PERICENTER": 156.66, "MEAN_ANOMALY": 327.9382, "EPHEMERIS_TYPE": 0, "CLASSIFICATION_TYPE": "U", "NORAD_CAT_ID": 29979, "ELEMENT_SET_NO": 999, "REV_AT_EPOCH": 98104, "BSTAR": 0.00045222835, "MEAN_MOTION_DOT": 1.106e-05, "MEAN_MOTION_DDOT": 0}, "tle": {"line1": "1 29979U 99025LD  25348.88704943  .00001106  00000+0  45223-3 0  9992", "line2": "2 29979  98.3705  12.0009 0107673 156.6600 327.9382 14.25967800981048"}}, "geometry": {"type": "Point", "coordinates": [-164.29768112337405, 20.517650346065782]}}, {"type": "Feature", "properties": {"norad_id": 29980, "name": "FENGYUN 1C DEB", "group": "fengyun-1c-debris", "lat": -74.47475200254141, "lon": -54.33254128941739, "alt_km": 818.9208637583415, "timestamp": "2025-12-15T10:55:21.415735+00:00", "meta": {"OBJECT_NAME": "FENGYUN 1C DEB", "OBJECT_ID": "1999-025LE", "EPOCH": "2025-12-14T22:20:52.234368", "MEAN_MOTION": 14.06317057, "ECCENTRICITY": 0.00869508, "INCLINATION": 98.5514, "RA_OF_ASC_NODE": 157.9667, "ARG_OF_PERICENTER": 241.5552, "MEAN_ANOMALY": 243.9893, "EPHEMERIS_TYPE": 0, "CLASSIFICATION_TYPE": "U", "NORAD_CAT_ID": 29980, "ELEMENT_SET_NO": 999, "REV_AT_EPOCH": 97023, "BSTAR": 0.00034098664, "MEAN_MOTION_DOT": 5.4e-06, "MEAN_MOTION_DDOT": 0}, "tle": {"line1": "1 29980U 99025LE  25348.93116012  .00000540  00000+0  34099-3 0  9994", "line2": "2 29980  98.5514 157.9667 0086950 241.5552 243.9893 14.06317057970238"}}, "geometry": {"type": "Point", "coordinates": [-54.33254128941739, -74.47475200254141]}}, {"type": "Feature", "properties": {"norad_id": 29982, "name": "FENGYUN 1C DEB", "group": "fengyun-1c-debris", "lat": 7.499103748489671, "lon": -7.627815484146589, "alt_km": 698.0945832232119, "timestamp": "2025-12-15T10:55:21.415746+00:00", "meta": {"OBJECT_NAME": "FENGYUN 1C DEB", "OBJECT_ID": "1999-025LG", "EPOCH": "2025-12-14T23:22:35.469696", "MEAN_MOTION": 14.66899142, "ECCENTRICITY": 0.01218012, "INCLINATION": 99.4015, "RA_OF_ASC_NODE": 170.5714, "ARG_OF_PERICENTER": 281.4701, "MEAN_ANOMALY": 233.0615, "EPHEMERIS_TYPE": 0, "CLASSIFICATION_TYPE": "U", "NORAD_CAT_ID": 29982, "ELEMENT_SET_NO": 999, "REV_AT_EPOCH": 316, "BSTAR": 0.00046848708, "MEAN_MOTION_DOT": 2.855e-05, "MEAN_MOTION_DDOT": 0}, "tle": {"line1": "1 29982U 99025LG  25348.97402164  .00002855  00000+0  46849-3 0  9993", "line2": "2 29982  99.4015 170.5714 0121801 281.4701 233.0615 14.66899142  3161"}}, "geometry": {"type": "Point", "coordinates": [-7.627815484146589, 7.499103748489671]}}, {"type": "Feature", "properties": {"norad_id": 29985, "name": "FENGYUN 1C DEB", "group": "fengyun-1c-debris", "lat": -54.540332450867936, "lon": 172.0001579421241, "alt_km": 848.3392860120348, "timestamp": "2025-12-15T10:55:21.415756+00:00", "meta": {"OBJECT_NAME": "FENGYUN 1C DEB", "OBJECT_ID": "1999-025LK", "EPOCH": "2025-12-14T22:12:11.327040", "MEAN_MOTION": 14.10324224, "ECCENTRICITY": 0.00282126, "INCLINATION": 98.7106, "RA_OF_ASC_NODE": 3.917, "ARG_OF_PERICENTER": 202.7085, "MEAN_ANOMALY": 223.2453, "EPHEMERIS_TYPE": 0, "CLASSIFICATION_TYPE": "U", "NORAD_CAT_ID": 29985, "ELEMENT_SET_NO": 999, "REV_AT_EPOCH": 97379, "BSTAR": 9.2823472e-05, "MEAN_MOTION_DOT": 1.23e-06, "MEAN_MOTION_DDOT": 0}, "tle": {"line1": "1 29985U 99025LK  25348.92513110  .00000123  00000+0  92823-4 0  9995", "line2": "2 29985  98.7106   3.9170 0028212 202.7085 223.2453 14.10324224973794"}}, "geometry": {"type": "Point", "coordinates": [172.0001579421241, -54.540332450867936]}}]}